NORAD_CAT_ID,OBJECT_NAME,OBJECT_TYPE,EPOCH,MEAN_MOTION,ECCENTRICITY,INCLINATION,RA_OF_ASC_NODE,ARG_OF_PERICENTER,MEAN_ANOMALY,BSTAR,MEAN_MOTION_DOT,MEAN_MOTION_DDOT,TLE_LINE0,TLE_LINE1,TLE_LINE2,SEMIMAJOR_AXIS,PERIOD,APOGEE,PERIGEE,DECAYED
54198.0,STARLINK-5246,PAYLOAD,2023-01-27 06:00:00,15.08854002,0.0001284999999999,53.2161,60.1208,97.2339,323.968,-0.0030182,-0.0004801999999999,0.0,0 STARLINK-5246,1 54198U 22141AT  23027.25001157 -.00048020  00000-0 -30182-2 0  9994,2 54198  53.2161  60.1208 0001285  97.2339 323.9680 15.08854002 14518,6917.838000000001,95.437,540.592,538.814,0.0
54198.0,STARLINK-5246,PAYLOAD,2023-01-27 14:00:01,15.08796902,0.0001136,53.216,58.6252,86.9277,345.8689,0.0021320999999999,0.00033767,0.0,0 STARLINK-5246,1 54198U 22141AT  23027.58334491  .00033767  00000-0  21321-2 0  9995,2 54198  53.2160  58.6252 0001136  86.9277 345.8689 15.08796902  1308,6918.012,95.44,540.663,539.091,0.0
54198.0,STARLINK-5246,PAYLOAD,2023-01-27 22:00:00,15.08793113,0.0001113,53.2163,57.1271,100.429,343.9328,0.0036898,0.0005884999999999,0.0,0 STARLINK-5246,1 54198U 22141AT  23027.91667824  .00058850  00000-0  36898-2 0  9996,2 54198  53.2163  57.1271 0001113 100.4290 343.9328 15.08793113 14616,6918.024,95.441,540.659,539.119,0.0
54198.0,STARLINK-5246,PAYLOAD,2023-01-28 14:00:01,15.0882005,0.0001124,53.2161,54.1361,82.516,25.0051,0.0019339,0.00030607,0.0,0 STARLINK-5246,1 54198U 22141AT  23028.58334491  .00030607  00000-0  19339-2 0  9992,2 54198  53.2161  54.1361 0001124  82.5160  25.0051 15.08820050 14712,6917.941,95.439,540.584,539.029,0.0
54198.0,STARLINK-5246,PAYLOAD,2023-01-28 22:00:00,15.0881173,0.0001092,53.2162,52.6381,96.8047,22.3047,0.003497,0.00055764,0.0,0 STARLINK-5246,1 54198U 22141AT  23028.91667824  .00055764  00000-0  34970-2 0  9997,2 54198  53.2162  52.6381 0001092  96.8047  22.3047 15.08811730  1305,6917.967,95.439,540.587,539.076,0.0
54198.0,STARLINK-5246,PAYLOAD,2023-01-29 02:14:38,15.08826289,0.0001199,53.2166,51.8451,95.6329,264.48,0.0001376,1.902e-05,0.0,0 STARLINK-5246,1 54198U 22141AT  23029.09350409  .00001902  00000-0  13760-3 0  9995,2 54198  53.2166  51.8451 0001199  95.6329 264.4800 15.08826289 14794,6917.922,95.438,540.617,538.958,0.0
54198.0,STARLINK-5246,PAYLOAD,2023-01-29 18:08:30,15.08832103,0.0001202,53.2173,48.8713,96.8995,263.2134,0.00015914,2.245e-05,0.0,0 STARLINK-5246,1 54198U 22141AT  23029.75590466  .00002245  00000-0  15914-3 0  9991,2 54198  53.2173  48.8713 0001202  96.8995 263.2134 15.08832103 14661,6917.905,95.438,540.601,538.938,0.0
54198.0,STARLINK-5246,PAYLOAD,2023-01-30 08:26:58,15.0883692,0.0001282,53.218,46.1951,98.6788,261.4349,0.0001235,1.678e-05,0.0,0 STARLINK-5246,1 54198U 22141AT  23030.35206625  .00001678  00000-0  12350-3 0  9990,2 54198  53.2180  46.1951 0001282  98.6788 261.4349 15.08836920 14986,6917.89,95.438,540.642,538.868,0.0
54198.0,STARLINK-5246,PAYLOAD,2023-01-30 17:59:17,15.08831021,0.0001313,53.2177,44.4106,95.0415,265.0727,3.0801e-05,2.02e-06,0.0,0 STARLINK-5246,1 54198U 22141AT  23030.74951314  .00000202  00000-0  30801-4 0  9999,2 54198  53.2177  44.4106 0001313  95.0415 265.0727 15.08831021 15043,6917.908,95.438,540.681,538.865,0.0
54198.0,STARLINK-5246,PAYLOAD,2023-01-31 01:56:13,15.08837613,0.0001106,53.2176,42.924,98.8446,261.2672,5.4949e-05,5.87e-06,0.0,0 STARLINK-5246,1 54198U 22141AT  23031.08070835  .00000587  00000-0  54949-4 0  9992,2 54198  53.2176  42.9240 0001106  98.8446 261.2672 15.08837613 15094,6917.888,95.438,540.518,538.988,0.0
54198.0,STARLINK-5246,PAYLOAD,2023-01-31 09:53:08,15.08848658,0.0001273,53.2174,41.4364,95.9092,264.2045,0.00011789,1.589e-05,0.0,0 STARLINK-5246,1 54198U 22141AT  23031.41190003  .00001589  00000-0  11789-3 0  9996,2 54198  53.2174  41.4364 0001273  95.9092 264.2045 15.08848658 15147,6917.854,95.437,540.6,538.838,0.0
54198.0,STARLINK-5246,PAYLOAD,2023-01-31 17:50:04,15.08840283,0.0001381,53.2203,39.9472,90.7509,269.3641,5.6793e-05,6.16e-06,0.0,0 STARLINK-5246,1 54198U 22141AT  23031.74310680  .00000616  00000-0  56793-4 0  9992,2 54198  53.2203  39.9472 0001381  90.7509 269.3641 15.08840283 15197,6917.88,95.438,540.7,538.789,0.0
54198.0,STARLINK-5246,PAYLOAD,2023-02-01 09:43:55,15.08848239,0.0001281,53.217,36.975,93.2896,266.8243,9.9863e-05,1.302e-05,0.0,0 STARLINK-5246,1 54198U 22141AT  23032.40549928  .00001302  00000-0  99863-4 0  9993,2 54198  53.2170  36.9750 0001281  93.2896 266.8243 15.08848239 15292,6917.855,95.437,540.606,538.834,0.0
54198.0,STARLINK-5246,PAYLOAD,2023-02-02 03:13:10,15.08838852,0.0001285,53.2197,33.7033,86.0419,274.072,4.5195e-05,4.31e-06,0.0,0 STARLINK-5246,1 54198U 22141AT  23033.13414666  .00000431  00000-0  45195-4 0  9995,2 54198  53.2197  33.7033 0001285  86.0419 274.0720 15.08838852 15409,6917.884,95.438,540.638,538.86,0.0
54198.0,STARLINK-5246,PAYLOAD,2023-02-02 09:34:42,15.08845336,0.0001343,53.218,32.5134,99.1718,260.9426,4.1883e-05,3.79e-06,0.0,0 STARLINK-5246,1 54198U 22141AT  23033.39910198  .00000379  00000-0  41883-4 0  9995,2 54198  53.2180  32.5134 0001343  99.1718 260.9426 15.08845336 15213,6917.864,95.437,540.658,538.8,0.0
54198.0,STARLINK-5246,PAYLOAD,2023-02-03 03:03:57,15.08837884,0.0001196,53.2177,29.2424,101.7017,258.411,8.9381e-05,1.135e-05,0.0,0 STARLINK-5246,1 54198U 22141AT  23034.12774486  .00001135  00000-0  89381-4 0  9991,2 54198  53.2177  29.2424 0001196 101.7017 258.4110 15.08837884 15550,6917.887,95.438,540.579,538.924,0.0
54198.0,STARLINK-5246,PAYLOAD,2023-02-03 09:25:29,15.08847018,0.0001369,53.2177,28.053,100.8184,259.2962,3.734e-05,3.06e-06,0.0,0 STARLINK-5246,1 54198U 22141AT  23034.39270043  .00000306  00000-0  37340-4 0  9997,2 54198  53.2177  28.0530 0001369 100.8184 259.2962 15.08847018 15365,6917.859,95.437,540.671,538.777,0.0
54198.0,STARLINK-5246,PAYLOAD,2023-02-04 09:16:16,15.08842718,0.0001222,53.2182,23.5941,87.9784,272.1348,6.9799e-05,8.23e-06,0.0,0 STARLINK-5246,1 54198U 22141AT  23035.38630425  .00000823  00000-0  69799-4 0  9998,2 54198  53.2182  23.5941 0001222  87.9784 272.1348 15.08842718 15742,6917.872,95.437,540.582,538.892,0.0
54198.0,STARLINK-5246,PAYLOAD,2023-02-05 02:45:32,15.08834185,0.0001201,53.2186,20.3232,82.057,278.0558,-1.9893e-05,-6.04e-06,0.0,0 STARLINK-5246,1 54198U 22141AT  23036.11495450 -.00000604  00000-0 -19893-4 0  9996,2 54198  53.2186  20.3232 0001201  82.0570 278.0558 15.08834185 15859,6917.898,95.438,540.594,538.932,0.0
54198.0,STARLINK-5246,PAYLOAD,2023-02-05 09:07:03,15.08844437,0.0001174,53.2174,19.1338,95.617,264.4956,4.5893e-05,4.43e-06,0.0,0 STARLINK-5246,1 54198U 22141AT  23036.37990590  .00000443  00000-0  45893-4 0  9997,2 54198  53.2174  19.1338 0001174  95.6170 264.4956 15.08844437 15890,6917.867,95.437,540.544,538.92,0.0
54198.0,STARLINK-5246,PAYLOAD,2023-02-06 02:36:19,15.08836814,0.0001238,53.2181,15.8635,90.1894,269.924,2.4213e-05,9.7e-07,0.0,0 STARLINK-5246,1 54198U 22141AT  23037.10855488  .00000097  00000-0  24213-4 0  9993,2 54198  53.2181  15.8635 0001238  90.1894 269.9240 15.08836814 16005,6917.89,95.438,540.612,538.899,0.0
54198.0,STARLINK-5246,PAYLOAD,2023-02-06 07:22:27,15.08847562,0.0001117,53.2172,14.9708,96.1188,263.9931,0.00011891,1.606e-05,0.0,0 STARLINK-5246,1 54198U 22141AT  23037.30726539  .00001606  00000-0  11891-3 0  9993,2 54198  53.2172  14.9708 0001117  96.1188 263.9931 15.08847562 16030,6917.857,95.437,540.495,538.95,0.0
54198.0,STARLINK-5246,PAYLOAD,2023-02-07 08:48:37,15.08858964,0.0001422,53.2169,10.2129,83.2523,276.8631,0.00027859,4.151e-05,0.0,0 STARLINK-5246,1 54198U 22141AT  23038.36709948  .00004151  00000-0  27859-3 0  9994,2 54198  53.2169  10.2129 0001422  83.2523 276.8631 15.08858964 16196,6917.822,95.436,540.671,538.704,0.0
54198.0,STARLINK-5246,PAYLOAD,2023-02-08 10:14:47,15.08850144,0.0001329,53.2183,5.4517,96.246,263.8683,0.00014568,2.032e-05,0.0,0 STARLINK-5246,1 54198U 22141AT  23039.42694180  .00002032  00000-0  14568-3 0  9992,2 54198  53.2183   5.4517 0001329  96.2460 263.8683 15.08850144 16352,6917.849,95.437,540.634,538.795,0.0
54198.0,STARLINK-5246,PAYLOAD,2023-02-09 03:44:02,15.08845512,0.000104,53.2177,2.1842,90.4813,269.6298,0.00010091,1.319e-05,0.0,0 STARLINK-5246,1 54198U 22141AT  23040.15558429  .00001319  00000-0  10091-3 0  9993,2 54198  53.2177   2.1842 0001040  90.4813 269.6298 15.08845512 16469,6917.864,95.437,540.448,539.009,0.0
54198.0,STARLINK-5246,PAYLOAD,2023-02-09 06:54:48,15.08849425,0.0001051,53.2174,1.5893,90.2139,269.8974,0.00023398,3.439e-05,0.0,0 STARLINK-5246,1 54198U 22141AT  23040.28806372  .00003439  00000-0  23398-3 0  9999,2 54198  53.2174   1.5893 0001051  90.2139 269.8974 15.08849425 16253,6917.852,95.437,540.444,538.99,0.0
54198.0,STARLINK-5246,PAYLOAD,2023-02-09 22:48:40,15.08837993,9.11e-05,53.2176,358.6168,88.3723,271.7374,4.6824e-05,4.58e-06,0.0,0 STARLINK-5246,1 54198U 22141AT  23040.95046920  .00000458  00000-0  46824-4 0  9996,2 54198  53.2176 358.6168 0000911  88.3723 271.7374 15.08837993 16586,6917.887,95.438,540.382,539.121,0.0
54198.0,STARLINK-5246,PAYLOAD,2023-02-10 03:34:50,15.08844043,9.92e-05,53.2179,357.7238,82.672,277.4385,0.00029168,4.358e-05,0.0,0 STARLINK-5246,1 54198U 22141AT  23041.14919097  .00004358  00000-0  29168-3 0  9996,2 54198  53.2179 357.7238 0000992  82.6720 277.4385 15.08844043 16387,6917.868,95.437,540.419,539.047,0.0
54198.0,STARLINK-5246,PAYLOAD,2023-02-11 03:25:37,15.08840869,9.88e-05,53.2175,353.2644,94.536,265.5745,0.0004501,6.883e-05,0.0,0 STARLINK-5246,1 54198U 22141AT  23042.14279831  .00006883  00000-0  45010-3 0  9991,2 54198  53.2175 353.2644 0000988  94.5360 265.5745 15.08840869 16764,6917.878,95.437,540.426,539.059,0.0
54198.0,STARLINK-5246,PAYLOAD,2023-02-11 20:54:52,15.08844227,0.0001202,53.2188,349.9938,94.7527,265.3603,0.00037307,5.655e-05,0.0,0 STARLINK-5246,1 54198U 22141AT  23042.87143926  .00005655  00000-0  37307-3 0  9992,2 54198  53.2188 349.9938 0001202  94.7527 265.3603 15.08844227 16643,6917.867,95.437,540.564,538.901,0.0
